EUTELSAT 7 WEST A       
1 37816U 11051A   26074.20888446 -.00000061  00000+0  00000+0 0  9998
2 37816   0.0636 347.3738 0000854 195.1829  58.1327  1.00271292 52938
QUETZSAT 1              
1 37826U 11054A   26074.26634469 -.00000242  00000+0  00000+0 0  9993
2 37826   0.0299 282.5185 0002737  86.1374 183.0722  1.00269915 48937
INTELSAT 18 (IS-18)     
1 37834U 11056A   26074.10332400  .00000052  00000+0  00000+0 0  9995
2 37834   0.0350 260.1897 0001643 111.0720  18.6337  1.00273979 52861
EUTELSAT 16A            
1 37836U 11057A   26074.27961642  .00000103  00000+0  00000+0 0  9999
2 37836   0.0552   2.0930 0005563 359.1958 288.2377  1.00270311  6394
VIASAT-1                
1 37843U 11059A   26073.97349679 -.00000024  00000+0  00000+0 0  9998
2 37843   0.0171 209.1405 0002320 151.2688  47.5209  1.00270912 46374
ASIASAT 7               
1 37933U 11069A   26074.30248486 -.00000334  00000+0  00000+0 0  9995
2 37933   0.0253 114.8942 0001092 245.2459  27.1598  1.00270357 43913
BEIDOU-2 IGSO-5         
1 37948U 11073A   26074.01527030 -.00000091  00000+0  00000+0 0  9999
2 37948  47.8502 272.7080 0108939 221.0218 139.4295  1.00270273 52193
LUCH-5A                 
1 37951U 11074B   26074.24346461 -.00000045  00000+0  00000+0 0  9995
2 37951   8.5139  75.1828 0003379 262.7020  89.7018  1.00268919 52102
NIGCOMSAT 1R            
1 38014U 11077A   26074.23308681  .00000144  00000+0  00000+0 0  9999
2 38014   0.0409 237.0204 0002522  93.4211 328.7878  1.00272559 52012
WGS F4 (USA 233)        
1 38070U 12003A   26073.94255667 -.00000215  00000+0  00000+0 0  9993
2 38070   0.0086 139.7653 0000173 109.1988 351.3138  1.00270257 43202
SES-4                   
1 38087U 12007A   26074.13461080 -.00000169  00000+0  00000+0 0  9993
2 38087   0.0320  63.2592 0002320 285.0691 210.8636  1.00273193 51286
BEIDOU-2 G5             
1 38091U 12008A   26074.22188451  .00000058  00000+0  00000+0 0  9993
2 38091   3.3378  70.2407 0013652 257.4109 343.7829  1.00270166 51423
MUOS-1                  
1 38093U 12009A   26073.97661681 -.00000125  00000+0  00000+0 0  9994
2 38093   5.2835  47.1917 0057834 358.2947  18.6994  1.00273033 51509
INTELSAT 22 (IS-22)     
1 38098U 12011A   26074.15324422 -.00000059  00000+0  00000+0 0  9998
2 38098   0.0247 111.2308 0001745 241.1662 307.6073  1.00270756  6244
APSTAR-7                
1 38107U 12013A   26074.15580505 -.00000102  00000+0  00000+0 0  9996
2 38107   0.0224 124.0440 0002422 245.0255 296.2723  1.00272121 50863
YAHSAT 1B               
1 38245U 12016A   26074.21971784  .00000126  00000+0  00000+0 0  9997
2 38245   0.0862  91.4021 0002781 267.0202 301.0880  1.00271719 44662
AEHF-2 (USA 235)        
1 38254U 12019A   26074.20706444 -.00000131  00000+0  00000+0 0  9995
2 38254   6.4329  58.1676 0003108 285.0512 247.6567  1.00272642  6047
