[{"OBJECT_NAME":"EUTELSAT 7 WEST A","OBJECT_ID":"2011-051A","EPOCH":"2026-03-15T05:00:47.617344","MEAN_MOTION":1.00271292,"ECCENTRICITY":8.54e-5,"INCLINATION":0.0636,"RA_OF_ASC_NODE":347.3738,"ARG_OF_PERICENTER":195.1829,"MEAN_ANOMALY":58.1327,"EPHEMERIS_TYPE":0,"CLASSIFICATION_TYPE":"U","NORAD_CAT_ID":37816,"ELEMENT_SET_NO":999,"REV_AT_EPOCH":5293,"BSTAR":0,"MEAN_MOTION_DOT":-6.1e-7,"MEAN_MOTION_DDOT":0},{"OBJECT_NAME":"QUETZSAT 1","OBJECT_ID":"2011-054A","EPOCH":"2026-03-15T06:23:32.181216","MEAN_MOTION":1.00269915,"ECCENTRICITY":0.00027376,"INCLINATION":0.0299,"RA_OF_ASC_NODE":282.5185,"ARG_OF_PERICENTER":86.1374,"MEAN_ANOMALY":183.0722,"EPHEMERIS_TYPE":0,"CLASSIFICATION_TYPE":"U","NORAD_CAT_ID":37826,"ELEMENT_SET_NO":999,"REV_AT_EPOCH":4893,"BSTAR":0,"MEAN_MOTION_DOT":-2.42e-6,"MEAN_MOTION_DDOT":0},{"OBJECT_NAME":"INTELSAT 18 (IS-18)","OBJECT_ID":"2011-056A","EPOCH":"2026-03-15T02:28:47.193600","MEAN_MOTION":1.00273979,"ECCENTRICITY":0.00016433,"INCLINATION":0.035,"RA_OF_ASC_NODE":260.1897,"ARG_OF_PERICENTER":111.072,"MEAN_ANOMALY":18.6337,"EPHEMERIS_TYPE":0,"CLASSIFICATION_TYPE":"U","NORAD_CAT_ID":37834,"ELEMENT_SET_NO":999,"REV_AT_EPOCH":5286,"BSTAR":0,"MEAN_MOTION_DOT":5.2e-7,"MEAN_MOTION_DDOT":0},{"OBJECT_NAME":"EUTELSAT 16A","OBJECT_ID":"2011-057A","EPOCH":"2026-03-15T06:42:38.858688","MEAN_MOTION":1.00270311,"ECCENTRICITY":0.00055633,"INCLINATION":0.0552,"RA_OF_ASC_NODE":2.093,"ARG_OF_PERICENTER":359.1958,"MEAN_ANOMALY":288.2377,"EPHEMERIS_TYPE":0,"CLASSIFICATION_TYPE":"U","NORAD_CAT_ID":37836,"ELEMENT_SET_NO":999,"REV_AT_EPOCH":639,"BSTAR":0,"MEAN_MOTION_DOT":1.03e-6,"MEAN_MOTION_DDOT":0},{"OBJECT_NAME":"VIASAT-1","OBJECT_ID":"2011-059A","EPOCH":"2026-03-14T23:21:50.122656","MEAN_MOTION":1.00270912,"ECCENTRICITY":0.000232,"INCLINATION":0.0171,"RA_OF_ASC_NODE":209.1405,"ARG_OF_PERICENTER":151.2688,"MEAN_ANOMALY":47.5209,"EPHEMERIS_TYPE":0,"CLASSIFICATION_TYPE":"U","NORAD_CAT_ID":37843,"ELEMENT_SET_NO":999,"REV_AT_EPOCH":4637,"BSTAR":0,"MEAN_MOTION_DOT":-2.4e-7,"MEAN_MOTION_DDOT":0},{"OBJECT_NAME":"ASIASAT 7","OBJECT_ID":"2011-069A","EPOCH":"2026-03-15T07:15:34.691904","MEAN_MOTION":1.00270357,"ECCENTRICITY":0.00010928,"INCLINATION":0.0253,"RA_OF_ASC_NODE":114.8942,"ARG_OF_PERICENTER":245.2459,"MEAN_ANOMALY":27.1598,"EPHEMERIS_TYPE":0,"CLASSIFICATION_TYPE":"U","NORAD_CAT_ID":37933,"ELEMENT_SET_NO":999,"REV_AT_EPOCH":4391,"BSTAR":0,"MEAN_MOTION_DOT":-3.34e-6,"MEAN_MOTION_DDOT":0},{"OBJECT_NAME":"BEIDOU-2 IGSO-5","OBJECT_ID":"2011-073A","EPOCH":"2026-03-15T00:21:59.353920","MEAN_MOTION":1.00270273,"ECCENTRICITY":0.01089395,"INCLINATION":47.8502,"RA_OF_ASC_NODE":272.708,"ARG_OF_PERICENTER":221.0218,"MEAN_ANOMALY":139.4295,"EPHEMERIS_TYPE":0,"CLASSIFICATION_TYPE":"U","NORAD_CAT_ID":37948,"ELEMENT_SET_NO":999,"REV_AT_EPOCH":5219,"BSTAR":0,"MEAN_MOTION_DOT":-9.1e-7,"MEAN_MOTION_DDOT":0},{"OBJECT_NAME":"LUCH-5A","OBJECT_ID":"2011-074B","EPOCH":"2026-03-15T05:50:35.342304","MEAN_MOTION":1.00268919,"ECCENTRICITY":0.00033799,"INCLINATION":8.5139,"RA_OF_ASC_NODE":75.1828,"ARG_OF_PERICENTER":262.702,"MEAN_ANOMALY":89.7018,"EPHEMERIS_TYPE":0,"CLASSIFICATION_TYPE":"U","NORAD_CAT_ID":37951,"ELEMENT_SET_NO":999,"REV_AT_EPOCH":5210,"BSTAR":0,"MEAN_MOTION_DOT":-4.5e-7,"MEAN_MOTION_DDOT":0},{"OBJECT_NAME":"NIGCOMSAT 1R","OBJECT_ID":"2011-077A","EPOCH":"2026-03-15T05:35:38.700384","MEAN_MOTION":1.00272559,"ECCENTRICITY":0.0002522,"INCLINATION":0.0409,"RA_OF_ASC_NODE":237.0204,"ARG_OF_PERICENTER":93.4211,"MEAN_ANOMALY":328.7878,"EPHEMERIS_TYPE":0,"CLASSIFICATION_TYPE":"U","NORAD_CAT_ID":38014,"ELEMENT_SET_NO":999,"REV_AT_EPOCH":5201,"BSTAR":0,"MEAN_MOTION_DOT":1.44e-6,"MEAN_MOTION_DDOT":0},{"OBJECT_NAME":"WGS F4 (USA 233)","OBJECT_ID":"2012-003A","EPOCH":"2026-03-14T22:37:16.896288","MEAN_MOTION":1.00270257,"ECCENTRICITY":1.73e-5,"INCLINATION":0.0086,"RA_OF_ASC_NODE":139.7653,"ARG_OF_PERICENTER":109.1988,"MEAN_ANOMALY":351.3138,"EPHEMERIS_TYPE":0,"CLASSIFICATION_TYPE":"U","NORAD_CAT_ID":38070,"ELEMENT_SET_NO":999,"REV_AT_EPOCH":4320,"BSTAR":0,"MEAN_MOTION_DOT":-2.15e-6,"MEAN_MOTION_DDOT":0},{"OBJECT_NAME":"SES-4","OBJECT_ID":"2012-007A","EPOCH":"2026-03-15T03:13:50.373120","MEAN_MOTION":1.00273193,"ECCENTRICITY":0.00023207,"INCLINATION":0.032,"RA_OF_ASC_NODE":63.2592,"ARG_OF_PERICENTER":285.0691,"MEAN_ANOMALY":210.8636,"EPHEMERIS_TYPE":0,"CLASSIFICATION_TYPE":"U","NORAD_CAT_ID":38087,"ELEMENT_SET_NO":999,"REV_AT_EPOCH":5128,"BSTAR":0,"MEAN_MOTION_DOT":-1.69e-6,"MEAN_MOTION_DDOT":0},{"OBJECT_NAME":"BEIDOU-2 G5","OBJECT_ID":"2012-008A","EPOCH":"2026-03-15T05:19:30.821664","MEAN_MOTION":1.00270166,"ECCENTRICITY":0.0013652,"INCLINATION":3.3378,"RA_OF_ASC_NODE":70.2407,"ARG_OF_PERICENTER":257.4109,"MEAN_ANOMALY":343.7829,"EPHEMERIS_TYPE":0,"CLASSIFICATION_TYPE":"U","NORAD_CAT_ID":38091,"ELEMENT_SET_NO":999,"REV_AT_EPOCH":5142,"BSTAR":0,"MEAN_MOTION_DOT":5.8e-7,"MEAN_MOTION_DDOT":0},{"OBJECT_NAME":"MUOS-1","OBJECT_ID":"2012-009A","EPOCH":"2026-03-14T23:26:19.692384","MEAN_MOTION":1.00273033,"ECCENTRICITY":0.00578348,"INCLINATION":5.2835,"RA_OF_ASC_NODE":47.1917,"ARG_OF_PERICENTER":358.2947,"MEAN_ANOMALY":18.6994,"EPHEMERIS_TYPE":0,"CLASSIFICATION_TYPE":"U","NORAD_CAT_ID":38093,"ELEMENT_SET_NO":999,"REV_AT_EPOCH":5150,"BSTAR":0,"MEAN_MOTION_DOT":-1.25e-6,"MEAN_MOTION_DDOT":0},{"OBJECT_NAME":"INTELSAT 22 (IS-22)","OBJECT_ID":"2012-011A","EPOCH":"2026-03-15T03:40:40.300608","MEAN_MOTION":1.00270756,"ECCENTRICITY":0.00017459,"INCLINATION":0.0247,"RA_OF_ASC_NODE":111.2308,"ARG_OF_PERICENTER":241.1662,"MEAN_ANOMALY":307.6073,"EPHEMERIS_TYPE":0,"CLASSIFICATION_TYPE":"U","NORAD_CAT_ID":38098,"ELEMENT_SET_NO":999,"REV_AT_EPOCH":624,"BSTAR":0,"MEAN_MOTION_DOT":-5.9e-7,"MEAN_MOTION_DDOT":0},{"OBJECT_NAME":"APSTAR-7","OBJECT_ID":"2012-013A","EPOCH":"2026-03-15T03:44:21.556320","MEAN_MOTION":1.00272121,"ECCENTRICITY":0.00024222,"INCLINATION":0.0224,"RA_OF_ASC_NODE":124.044,"ARG_OF_PERICENTER":245.0255,"MEAN_ANOMALY":296.2723,"EPHEMERIS_TYPE":0,"CLASSIFICATION_TYPE":"U","NORAD_CAT_ID":38107,"ELEMENT_SET_NO":999,"REV_AT_EPOCH":5086,"BSTAR":0,"MEAN_MOTION_DOT":-1.02e-6,"MEAN_MOTION_DDOT":0},{"OBJECT_NAME":"YAHSAT 1B","OBJECT_ID":"2012-016A","EPOCH":"2026-03-15T05:16:23.621376","MEAN_MOTION":1.00271719,"ECCENTRICITY":0.00027815,"INCLINATION":0.0862,"RA_OF_ASC_NODE":91.4021,"ARG_OF_PERICENTER":267.0202,"MEAN_ANOMALY":301.088,"EPHEMERIS_TYPE":0,"CLASSIFICATION_TYPE":"U","NORAD_CAT_ID":38245,"ELEMENT_SET_NO":999,"REV_AT_EPOCH":4466,"BSTAR":0,"MEAN_MOTION_DOT":1.26e-6,"MEAN_MOTION_DDOT":0},{"OBJECT_NAME":"AEHF-2 (USA 235)","OBJECT_ID":"2012-019A","EPOCH":"2026-03-15T04:58:10.367616","MEAN_MOTION":1.00272642,"ECCENTRICITY":0.00031087,"INCLINATION":6.4329,"RA_OF_ASC_NODE":58.1676,"ARG_OF_PERICENTER":285.0512,"MEAN_ANOMALY":247.6567,"EPHEMERIS_TYPE":0,"CLASSIFICATION_TYPE":"U","NORAD_CAT_ID":38254,"ELEMENT_SET_NO":999,"REV_AT_EPOCH":604,"BSTAR":0,"MEAN_MOTION_DOT":-1.31e-6,"MEAN_MOTION_DDOT":0}]
